     2.100          NAVIGATION                              RINEX VERSION / TYPE
fic2rin                                 04/05/2009 01:20:46 PGM / RUN BY / DATE
                                                            END OF HEADER
 7 09  4  5  0  0  0.0  .208267010748D-04 -.568434188608D-12  .000000000000D+00
     .280000000000D+02  .461875000000D+02  .472662545435D-08  .292564366631D+01
     .240281224251D-05  .238265621010D-02  .392273068428D-05  .515367306709D+04
     .000000000000D+00 -.502914190292D-07 -.265848680869D+01  .596046447754D-07
     .966803318736D+00  .309125000000D+03  .290236503943D+01 -.830998900154D-08
     .212508851847D-09  .100000000000D+01  .152600000000D+04  .000000000000D+00
     .240000000000D+01  .000000000000D+00 -.107102096081D-07  .280000000000D+02
     .597606000000D+06  .400000000000D+01
 8 09  4  5  0  0  0.0 -.197032000870D-03 -.159161572810D-11  .000000000000D+00
     .440000000000D+02  .304687500000D+02  .426589197724D-08  .222583900816D+01
     .173225998878D-05  .104874767130D-01  .404193997383D-05  .515366395950D+04
     .000000000000D+00 -.745058059692D-08 -.259923342288D+01  .279396772385D-06
     .987961138650D+00  .319187500000D+03  .298458653459D+01 -.811069498586D-08
     .112147528538D-09  .100000000000D+01  .152600000000D+04  .000000000000D+00
     .240000000000D+01  .000000000000D+00 -.465661287308D-08  .440000000000D+02
     .597606000000D+06  .400000000000D+01
 9 09  4  5  0  0  0.0  .490555539727D-04  .193267624127D-11  .000000000000D+00
     .113000000000D+03  .339062500000D+02  .441518391013D-08  .198287478084D+01
     .132434070110D-05  .203139536316D-01  .388920307159D-05  .515364009666D+04
     .000000000000D+00  .257045030594D-06 -.269286888286D+01 -.385567545891D-06
     .975765230961D+00  .307531250000D+03  .146658311915D+01 -.799854745732D-08
     .159649507186D-09  .100000000000D+01  .152600000000D+04  .000000000000D+00
     .240000000000D+01  .000000000000D+00 -.558793544769D-08  .113000000000D+03
     .597606000000D+06  .400000000000D+01
10 09  4  5  0  0  0.0 -.138184987009D-04 -.682121026330D-12  .000000000000D+00
     .860000000000D+02 -.160937500000D+02  .471126767178D-08 -.724499179076D+00
    -.603497028351D-06  .866465503350D-02  .725872814655D-05  .515357397079D+04
     .000000000000D+00  .111758708954D-06  .155480730659D+01  .139698386192D-06
     .958737341430D+00  .235656250000D+03  .618150061300D+00 -.825712965688D-08
    -.304655547269D-09  .100000000000D+01  .152600000000D+04  .000000000000D+00
     .240000000000D+01  .000000000000D+00 -.279396772385D-08  .860000000000D+02
     .597606000000D+06  .400000000000D+01
11 09  4  5  0  0  0.0  .234274193645D-05 -.136424205266D-11  .000000000000D+00
     .670000000000D+02  .535625000000D+02  .621990194102D-08  .276970623823D+01
     .278651714325D-05  .925789563917D-02  .709854066372D-05  .515367453384D+04
     .000000000000D+00 -.149011611938D-07  .272963552519D+00 -.134110450745D-06
     .890043612129D+00  .204812500000D+03  .691898438816D+00 -.878393731482D-08
     .458233372974D-09  .100000000000D+01  .152600000000D+04  .000000000000D+00
     .240000000000D+01  .000000000000D+00 -.121071934700D-07  .670000000000D+02
     .597606000000D+06  .400000000000D+01
12 09  4  5  0  0  0.0 -.298140570521D-03  .454747350886D-11  .000000000000D+00
     .900000000000D+02 -.912812500000D+02  .445768568050D-08  .303669840345D+01
    -.476650893688D-05  .335421366617D-02  .663287937641D-05  .515368846893D+04
     .000000000000D+00 -.260770320892D-07 -.160658426669D+01  .949949026108D-07
     .966146478759D+00  .252843750000D+03 -.764998129197D+00 -.811640950961D-08
    -.332871008271D-09  .100000000000D+01  .152600000000D+04  .000000000000D+00
     .240000000000D+01  .000000000000D+00 -.121071934700D-07  .900000000000D+02
     .597606000000D+06  .400000000000D+01
13 09  4  5  0  0  0.0  .293587800115D-03  .102318153949D-11  .000000000000D+00
     .130000000000D+02  .503125000000D+02  .377480009272D-08 -.932917220615D+00
     .269524753094D-05  .398105976637D-02  .108350068331D-04  .515373087883D+04
     .000000000000D+00 -.633299350739D-07  .263388879794D+01  .149011611938D-07
     .995235449060D+00  .193531250000D+03  .152604680675D+01 -.767067665733D-08
     .657170230921D-10  .100000000000D+01  .152600000000D+04  .000000000000D+00
     .240000000000D+01  .000000000000D+00 -.111758708954D-07  .130000000000D+02
     .597606000000D+06  .400000000000D+01
14 09  4  5  0  0  0.0 -.130678061396D-03  .568434188608D-11  .000000000000D+00
     .500000000000D+02  .687812500000D+02  .383480259206D-08 -.121935623675D+01
     .360049307346D-05  .436444487423D-02  .109709799290D-04  .515359626007D+04
     .000000000000D+00  .596046447754D-07  .261471879989D+01  .987201929092D-07
     .988764445985D+00  .183218750000D+03 -.212249123213D+01 -.770139222247D-08
     .700029159024D-10  .100000000000D+01  .152600000000D+04  .000000000000D+00
     .240000000000D+01  .000000000000D+00 -.931322574615D-08  .500000000000D+02
     .597606000000D+06  .400000000000D+01
16 09  4  5  0  0  0.0  .620633363724D-04 -.306954461848D-11  .000000000000D+00
     .570000000000D+02 -.108718750000D+03  .446340020425D-08  .521348299472D+00
    -.581331551075D-05  .528214278165D-02  .636279582977D-05  .515379505730D+04
     .000000000000D+00  .111758708954D-06 -.158970642574D+01 -.167638063431D-07
     .967634850150D+00  .258000000000D+03 -.372529366395D+00 -.827784480546D-08
    -.423589072757D-09  .100000000000D+01  .152600000000D+04  .000000000000D+00
     .240000000000D+01  .000000000000D+00 -.977888703346D-08  .570000000000D+02
     .597606000000D+06  .400000000000D+01
17 09  4  5  0  0  0.0  .529303215444D-04  .159161572810D-11  .000000000000D+00
     .740000000000D+02 -.177187500000D+02  .433982362822D-08 -.564214302248D+00
    -.957399606705D-06  .438451080117D-02  .111218541861D-04  .515366592598D+04
     .000000000000D+00  .111758708954D-06 -.547362094548D+00  .242143869400D-07
     .959981231414D+00  .167093750000D+03 -.268398795485D+01 -.796997483859D-08
     .129291099779D-09  .100000000000D+01  .152600000000D+04  .000000000000D+00
     .240000000000D+01  .000000000000D+00 -.102445483208D-07  .740000000000D+02
     .597606000000D+06  .400000000000D+01
18 09  4  5  0  0  0.0 -.684875994921D-04  .341060513165D-11  .000000000000D+00
     .580000000000D+02 -.130000000000D+02  .518128724998D-08  .667454622553D+00
    -.752508640289D-06  .101232922170D-01  .768154859543D-05  .515358632088D+04
     .000000000000D+00 -.279396772385D-07  .156104642984D+01  .108033418655D-06
     .942791240319D+00  .223093750000D+03 -.243075985040D+01 -.853035532354D-08
    -.473591155544D-09  .100000000000D+01  .152600000000D+04  .000000000000D+00
     .240000000000D+01  .000000000000D+00 -.107102096081D-07  .580000000000D+02
     .597606000000D+06  .400000000000D+01
19 09  4  5  0  0  0.0  .290879979730D-04 -.909494701773D-12  .000000000000D+00
     .360000000000D+02 -.138750000000D+02  .428803575676D-08 -.123140688984D+01
    -.732019543648D-06  .541706953663D-02  .117514282465D-04  .515358842659D+04
     .000000000000D+00 -.894069671631D-07 -.491169226987D+00 -.391155481339D-07
     .957739347494D+00  .153937500000D+03 -.376929088129D+00 -.784032658107D-08
     .311084386485D-09  .100000000000D+01  .152600000000D+04  .000000000000D+00
     .240000000000D+01  .000000000000D+00 -.149011611938D-07  .360000000000D+02
     .597606000000D+06  .400000000000D+01
20 09  4  5  0  0  0.0  .862358137965D-04 -.102318153949D-11  .000000000000D+00
     .101000000000D+03 -.270625000000D+02  .518164440772D-08  .836527201470D+00
    -.151433050632D-05  .405160803348D-02  .709481537342D-05  .515363695526D+04
     .000000000000D+00 -.447034835815D-07  .150720720729D+01 -.242143869400D-07
     .942418681898D+00  .230593750000D+03  .133947477105D+01 -.851106880589D-08
    -.376801409577D-09  .100000000000D+01  .152600000000D+04  .000000000000D+00
     .240000000000D+01  .000000000000D+00 -.651925802231D-08  .101000000000D+03
     .597606000000D+06  .400000000000D+01
21 09  4  5  0  0  0.0  .209296122193D-04 -.193267624127D-11  .000000000000D+00
     .980000000000D+02  .408750000000D+02  .542844040205D-08  .198026181020D+01
     .211596488953D-05  .149511116324D-01  .645965337753D-05  .515362348747D+04
     .000000000000D+00 -.344589352608D-06  .502310287354D+00  .484287738800D-07
     .934584738029D+00  .242625000000D+03 -.262659084385D+01 -.856928551657D-08
     .223223583873D-09  .100000000000D+01  .152600000000D+04  .000000000000D+00
     .240000000000D+01  .000000000000D+00 -.116415321827D-07  .980000000000D+02
     .597606000000D+06  .400000000000D+01
23 09  4  5  0  0  0.0  .389101449400D-03  .341060513165D-12  .000000000000D+00
     .760000000000D+02  .525625000000D+02  .426232039990D-08 -.177002849213D+01
     .259652733803D-05  .590632553212D-02  .109039247036D-04  .515362934875D+04
     .000000000000D+00 -.186264514923D-07  .258314383877D+01 -.143423676491D-06
     .970753708108D+00  .178125000000D+03  .287617230460D+01 -.792032991353D-08
     .875036448780D-10  .100000000000D+01  .152600000000D+04  .000000000000D+00
     .240000000000D+01  .000000000000D+00 -.200234353542D-07  .760000000000D+02
     .597606000000D+06  .400000000000D+01
25 09  4  5  0  0  0.0  .341122969985D-03  .217141860048D-10  .000000000000D+00
     .640000000000D+02  .530000000000D+02  .470555314803D-08  .110961186751D+01
     .248290598392D-05  .116352537880D-01  .470690429211D-05  .515365568161D+04
     .000000000000D+00 -.167638063431D-07 -.275304697333D+01 -.244006514549D-06
     .969151132555D+00  .293750000000D+03 -.121104572684D+01 -.838213486385D-08
     .231438211759D-09  .100000000000D+01  .152600000000D+04  .000000000000D+00
     .485000000000D+01  .000000000000D+00 -.745058059692D-08  .640000000000D+02
     .597606000000D+06  .400000000000D+01
